{
  "norad_id": 56915,
  "name": "STARLINK-5965",
  "history": [
    {
      "epoch": "2026-03-28T22:00:01.999584Z",
      "apogee_km": 486.6208816540011,
      "perigee_km": 484.5750768060925,
      "latitude_deg": -23.411259798880707,
      "longitude_deg": 137.922095944598,
      "height_km": 490.59495270961963,
      "semi_major_axis_km": 6863.7349792300465,
      "eccentricity": 0.00014903,
      "inclination_deg": 43.0004,
      "raan_deg": 321.7599,
      "arg_perigee_deg": 269.6954,
      "mean_anomaly_deg": 54.9298,
      "mean_motion_rev_day": 15.26729167
    },
    {
      "epoch": "2026-03-29T04:00:01.999584Z",
      "apogee_km": 486.7943940421437,
      "perigee_km": 484.44424387853087,
      "latitude_deg": -42.40057784535659,
      "longitude_deg": -29.378534765882563,
      "height_km": 497.4942742956229,
      "semi_major_axis_km": 6863.756318960337,
      "eccentricity": 0.0001712,
      "inclination_deg": 43.0006,
      "raan_deg": 320.3491,
      "arg_perigee_deg": 268.8663,
      "mean_anomaly_deg": 351.4276,
      "mean_motion_rev_day": 15.26722047
    },
    {
      "epoch": "2026-03-30T00:50:50.764992Z",
      "apogee_km": 486.5785359723968,
      "perigee_km": 484.53315550436764,
      "latitude_deg": 4.287572617517371e-05,
      "longitude_deg": 115.30369664477479,
      "height_km": 485.4306976731298,
      "semi_major_axis_km": 6863.692845738382,
      "eccentricity": 0.000149,
      "inclination_deg": 43.0019,
      "raan_deg": 315.448,
      "arg_perigee_deg": 264.5121,
      "mean_anomaly_deg": 95.5561,
      "mean_motion_rev_day": 15.26743225
    },
    {
      "epoch": "2026-03-30T00:50:50.765856Z",
      "apogee_km": 486.57867324625477,
      "perigee_km": 484.5330182305097,
      "latitude_deg": 4.446519758339659e-05,
      "longitude_deg": 115.30369472985501,
      "height_km": 485.4307107972731,
      "semi_major_axis_km": 6863.692845738382,
      "eccentricity": 0.00014902,
      "inclination_deg": 43.0019,
      "raan_deg": 315.448,
      "arg_perigee_deg": 264.5121,
      "mean_anomaly_deg": 95.5561,
      "mean_motion_rev_day": 15.26743225
    },
    {
      "epoch": "2026-03-30T22:49:45.043392Z",
      "apogee_km": 486.609701575293,
      "perigee_km": 484.4892342778912,
      "latitude_deg": 3.082550898920912e-05,
      "longitude_deg": 139.50836670573855,
      "height_km": 485.4511309936019,
      "semi_major_axis_km": 6863.686467926592,
      "eccentricity": 0.00015447,
      "inclination_deg": 43.0015,
      "raan_deg": 310.2816,
      "arg_perigee_deg": 263.2497,
      "mean_anomaly_deg": 96.8179,
      "mean_motion_rev_day": 15.26745353
    },
    {
      "epoch": "2026-03-31T00:23:57.532704Z",
      "apogee_km": 486.6209703182594,
      "perigee_km": 484.4781273777089,
      "latitude_deg": -2.354535078237291e-05,
      "longitude_deg": 115.5230868142347,
      "height_km": 485.4332439701502,
      "semi_major_axis_km": 6863.686548847983,
      "eccentricity": 0.0001561,
      "inclination_deg": 43.0017,
      "raan_deg": 309.9129,
      "arg_perigee_deg": 264.2895,
      "mean_anomaly_deg": 95.7778,
      "mean_motion_rev_day": 15.26745326
    },
    {
      "epoch": "2026-03-31T23:57:05.325984Z",
      "apogee_km": 486.66721073423923,
      "perigee_km": 484.46135441604656,
      "latitude_deg": 3.657091790937323e-05,
      "longitude_deg": 115.73882726113952,
      "height_km": 485.4033549565403,
      "semi_major_axis_km": 6863.701282575143,
      "eccentricity": 0.00016069,
      "inclination_deg": 43.0011,
      "raan_deg": 304.3783,
      "arg_perigee_deg": 266.7769,
      "mean_anomaly_deg": 93.2899,
      "mean_motion_rev_day": 15.2674041
    },
    {
      "epoch": "2026-04-02T19:54:54.152352Z",
      "apogee_km": 486.72494365341663,
      "perigee_km": 484.3569747574911,
      "latitude_deg": 2.4472649104823835e-05,
      "longitude_deg": 164.14735360302367,
      "height_km": 485.3193904952062,
      "semi_major_axis_km": 6863.677959205454,
      "eccentricity": 0.0001725,
      "inclination_deg": 43.0017,
      "raan_deg": 294.0458,
      "arg_perigee_deg": 269.942,
      "mean_anomaly_deg": 90.1234,
      "mean_motion_rev_day": 15.26748192
    },
    {
      "epoch": "2026-04-02T21:29:06.381600Z",
      "apogee_km": 486.68502194105986,
      "perigee_km": 484.37594692594666,
      "latitude_deg": 2.9771783458635468e-05,
      "longitude_deg": 140.16302387557687,
      "height_km": 485.2961371890969,
      "semi_major_axis_km": 6863.667484433503,
      "eccentricity": 0.00016821,
      "inclination_deg": 43.0016,
      "raan_deg": 293.6769,
      "arg_perigee_deg": 270.5725,
      "mean_anomaly_deg": 89.4934,
      "mean_motion_rev_day": 15.26751687
    },
    {
      "epoch": "2026-04-04T20:35:21.553440Z",
      "apogee_km": 486.6433132959728,
      "perigee_km": 484.48399307048203,
      "latitude_deg": -2.385743012608289e-05,
      "longitude_deg": 140.59434852282175,
      "height_km": 485.4010253663935,
      "semi_major_axis_km": 6863.700653183228,
      "eccentricity": 0.0001573,
      "inclination_deg": 43.0015,
      "raan_deg": 282.606,
      "arg_perigee_deg": 266.799,
      "mean_anomaly_deg": 93.2681,
      "mean_motion_rev_day": 15.2674062
    },
    {
      "epoch": "2026-04-05T13:51:39.208896Z",
      "apogee_km": 486.835760402073,
      "perigee_km": 484.3398355165418,
      "latitude_deg": -3.600514031702738e-05,
      "longitude_deg": -123.24684821510984,
      "height_km": 485.2719300763969,
      "semi_major_axis_km": 6863.724797959307,
      "eccentricity": 0.00018182,
      "inclination_deg": 43.0019,
      "raan_deg": 278.5477,
      "arg_perigee_deg": 274.2835,
      "mean_anomaly_deg": 85.7808,
      "mean_motion_rev_day": 15.26732564
    },
    {
      "epoch": "2026-04-05T18:34:16.654368Z",
      "apogee_km": 486.8011180991225,
      "perigee_km": 484.36587006782065,
      "latitude_deg": 6.28624135846196e-05,
      "longitude_deg": 164.79658474688253,
      "height_km": 485.32990909949046,
      "semi_major_axis_km": 6863.720494083471,
      "eccentricity": 0.0001774,
      "inclination_deg": 43.0018,
      "raan_deg": 277.4405,
      "arg_perigee_deg": 271.4527,
      "mean_anomaly_deg": 88.6122,
      "mean_motion_rev_day": 15.26734
    },
    {
      "epoch": "2026-04-07T12:57:53.125344Z",
      "apogee_km": 486.6792061302185,
      "perigee_km": 484.4301116474335,
      "latitude_deg": 4.6579505194539714e-06,
      "longitude_deg": -122.81078189934215,
      "height_km": 485.4012705672408,
      "semi_major_axis_km": 6863.691658888826,
      "eccentricity": 0.00016384,
      "inclination_deg": 43.0014,
      "raan_deg": 267.4762,
      "arg_perigee_deg": 266.4572,
      "mean_anomaly_deg": 93.6092,
      "mean_motion_rev_day": 15.26743621
    },
    {
      "epoch": "2026-04-07T17:40:30.485280Z",
      "apogee_km": 486.68814475448016,
      "perigee_km": 484.4148911173388,
      "latitude_deg": 1.2215889348482119e-05,
      "longitude_deg": 165.23331084407653,
      "height_km": 485.38839809884695,
      "semi_major_axis_km": 6863.688517935909,
      "eccentricity": 0.0001656,
      "inclination_deg": 43.0017,
      "raan_deg": 266.3694,
      "arg_perigee_deg": 266.9887,
      "mean_anomaly_deg": 93.0775,
      "mean_motion_rev_day": 15.26744669
    },
    {
      "epoch": "2026-04-08T12:31:00.486624Z",
      "apogee_km": 486.73998893828684,
      "perigee_km": 484.3721521028183,
      "latitude_deg": 5.352445306390521e-05,
      "longitude_deg": -122.59385285760149,
      "height_km": 485.4218270998549,
      "semi_major_axis_km": 6863.693070520552,
      "eccentricity": 0.00017249,
      "inclination_deg": 43.0015,
      "raan_deg": 261.941,
      "arg_perigee_deg": 265.7099,
      "mean_anomaly_deg": 94.3556,
      "mean_motion_rev_day": 15.2674315
    },
    {
      "epoch": "2026-04-09T16:46:44.986656Z",
      "apogee_km": 486.8843267322609,
      "perigee_km": 484.2239600450839,
      "latitude_deg": -3.775744614031195e-05,
      "longitude_deg": 165.67003556387957,
      "height_km": 485.186806754994,
      "semi_major_axis_km": 6863.691143388673,
      "eccentricity": 0.0001938,
      "inclination_deg": 43.0031,
      "raan_deg": 255.3011,
      "arg_perigee_deg": 276.2541,
      "mean_anomaly_deg": 83.8089,
      "mean_motion_rev_day": 15.26743793
    },
    {
      "epoch": "2026-04-09T16:46:44.987520Z",
      "apogee_km": 486.8844640060843,
      "perigee_km": 484.22382277126144,
      "latitude_deg": -3.6197123462716016e-05,
      "longitude_deg": 165.6700336178458,
      "height_km": 485.1867918030138,
      "semi_major_axis_km": 6863.691143388673,
      "eccentricity": 0.00019382,
      "inclination_deg": 43.0031,
      "raan_deg": 255.3011,
      "arg_perigee_deg": 276.2541,
      "mean_anomaly_deg": 83.8089,
      "mean_motion_rev_day": 15.26743793
    },
    {
      "epoch": "2026-04-11T15:52:59.742048Z",
      "apogee_km": 486.8135128235781,
      "perigee_km": 484.3247329834139,
      "latitude_deg": 2.8895018660759746e-05,
      "longitude_deg": 166.1034249515147,
      "height_km": 485.34063066193625,
      "semi_major_axis_km": 6863.706122903496,
      "eccentricity": 0.0001813,
      "inclination_deg": 43.0031,
      "raan_deg": 244.2304,
      "arg_perigee_deg": 270.274,
      "mean_anomaly_deg": 89.7904,
      "mean_motion_rev_day": 15.26738795
    }
  ]
}